{"type":"FeatureCollection","features":[{"type":"Feature","properties":{"cell_index":0},"geometry":{"type":"Polygon","coordinates":[[[-93.7051318,44.89628339],[-93.7367919,44.89608352],[-93.73707944,44.91858684],[-93.70540699,44.91878687],[-93.7051318,44.89628339]]]}},{"type":"Feature","properties":{"cell_index":1},"geometry":{"type":"Polygon","coordinates":[[[-93.70540699,44.91878687],[-93.73707944,44.91858684],[-93.73736733,44.94109007],[-93.70568251,44.94129025],[-93.70540699,44.91878687]]]}},{"type":"Feature","properties":{"cell_index":2},"geometry":{"type":"Polygon","coordinates":[[[-93.70568251,44.94129025],[-93.73736733,44.94109007],[-93.73765555,44.9635932],[-93.70595835,44.96379355],[-93.70568251,44.94129025]]]}},{"type":"Feature","properties":{"cell_index":3},"geometry":{"type":"Polygon","coordinates":[[[-93.70595835,44.96379355],[-93.73765555,44.9635932],[-93.73794411,44.98609625],[-93.70623451,44.98629675],[-93.70595835,44.96379355]]]}},{"type":"Feature","properties":{"cell_index":4},"geometry":{"type":"Polygon","coordinates":[[[-93.70623451,44.98629675],[-93.73794411,44.98609625],[-93.73823301,45.00859921],[-93.706511,45.00879987],[-93.70623451,44.98629675]]]}},{"type":"Feature","properties":{"cell_index":5},"geometry":{"type":"Polygon","coordinates":[[[-93.706511,45.00879987],[-93.73823301,45.00859921],[-93.73852225,45.03110208],[-93.70678782,45.03130289],[-93.706511,45.00879987]]]}},{"type":"Feature","properties":{"cell_index":6},"geometry":{"type":"Polygon","coordinates":[[[-93.70678782,45.03130289],[-93.73852225,45.03110208],[-93.73881183,45.05360485],[-93.70706496,45.05380582],[-93.70678782,45.03130289]]]}},{"type":"Feature","properties":{"cell_index":7},"geometry":{"type":"Polygon","coordinates":[[[-93.70706496,45.05380582],[-93.73881183,45.05360485],[-93.73910175,45.07610754],[-93.70734242,45.07630867],[-93.70706496,45.05380582]]]}},{"type":"Feature","properties":{"cell_index":8},"geometry":{"type":"Polygon","coordinates":[[[-93.67347138,44.89647449],[-93.7051318,44.89628339],[-93.70540699,44.91878687],[-93.67373422,44.91897811],[-93.67347138,44.89647449]]]}},{"type":"Feature","properties":{"cell_index":9},"geometry":{"type":"Polygon","coordinates":[[[-93.67373422,44.91897811],[-93.70540699,44.91878687],[-93.70568251,44.94129025],[-93.67399737,44.94148165],[-93.67373422,44.91897811]]]}},{"type":"Feature","properties":{"cell_index":10},"geometry":{"type":"Polygon","coordinates":[[[-93.67399737,44.94148165],[-93.70568251,44.94129025],[-93.70595835,44.96379355],[-93.67426083,44.96398509],[-93.67399737,44.94148165]]]}},{"type":"Feature","properties":{"cell_index":11},"geometry":{"type":"Polygon","coordinates":[[[-93.67426083,44.96398509],[-93.70595835,44.96379355],[-93.70623451,44.98629675],[-93.67452459,44.98648845],[-93.67426083,44.96398509]]]}},{"type":"Feature","properties":{"cell_index":12},"geometry":{"type":"Polygon","coordinates":[[[-93.67452459,44.98648845],[-93.70623451,44.98629675],[-93.706511,45.00879987],[-93.67478867,45.00899171],[-93.67452459,44.98648845]]]}},{"type":"Feature","properties":{"cell_index":13},"geometry":{"type":"Polygon","coordinates":[[[-93.67478867,45.00899171],[-93.706511,45.00879987],[-93.70678782,45.03130289],[-93.67505306,45.03149489],[-93.67478867,45.00899171]]]}},{"type":"Feature","properties":{"cell_index":14},"geometry":{"type":"Polygon","coordinates":[[[-93.67505306,45.03149489],[-93.70678782,45.03130289],[-93.70706496,45.05380582],[-93.67531776,45.05399797],[-93.67505306,45.03149489]]]}},{"type":"Feature","properties":{"cell_index":15},"geometry":{"type":"Polygon","coordinates":[[[-93.67531776,45.05399797],[-93.70706496,45.05380582],[-93.70734242,45.07630867],[-93.67558277,45.07650096],[-93.67531776,45.05399797]]]}},{"type":"Feature","properties":{"cell_index":16},"geometry":{"type":"Polygon","coordinates":[[[-93.67558277,45.07650096],[-93.70734242,45.07630867],[-93.70762022,45.09881142],[-93.67584809,45.09900387],[-93.67558277,45.07650096]]]}},{"type":"Feature","properties":{"cell_index":17},"geometry":{"type":"Polygon","coordinates":[[[-93.67584809,45.09900387],[-93.70762022,45.09881142],[-93.70789834,45.12131408],[-93.67611372,45.12150668],[-93.67584809,45.09900387]]]}},{"type":"Feature","properties":{"cell_index":18},"geometry":{"type":"Polygon","coordinates":[[[-93.64181066,44.89665681],[-93.67347138,44.89647449],[-93.67373422,44.91897811],[-93.64206114,44.91916058],[-93.64181066,44.89665681]]]}},{"type":"Feature","properties":{"cell_index":19},"geometry":{"type":"Polygon","coordinates":[[[-93.64206114,44.91916058],[-93.67373422,44.91897811],[-93.67399737,44.94148165],[-93.64231192,44.94166426],[-93.64206114,44.91916058]]]}},{"type":"Feature","properties":{"cell_index":20},"geometry":{"type":"Polygon","coordinates":[[[-93.64231192,44.94166426],[-93.67399737,44.94148165],[-93.67426083,44.96398509],[-93.64256299,44.96416784],[-93.64231192,44.94166426]]]}},{"type":"Feature","properties":{"cell_index":21},"geometry":{"type":"Polygon","coordinates":[[[-93.64256299,44.96416784],[-93.67426083,44.96398509],[-93.67452459,44.98648845],[-93.64281436,44.98667134],[-93.64256299,44.96416784]]]}},{"type":"Feature","properties":{"cell_index":22},"geometry":{"type":"Polygon","coordinates":[[[-93.64281436,44.98667134],[-93.67452459,44.98648845],[-93.67478867,45.00899171],[-93.64306603,45.00917475],[-93.64281436,44.98667134]]]}},{"type":"Feature","properties":{"cell_index":23},"geometry":{"type":"Polygon","coordinates":[[[-93.64306603,45.00917475],[-93.67478867,45.00899171],[-93.67505306,45.03149489],[-93.64331799,45.03167806],[-93.64306603,45.00917475]]]}},{"type":"Feature","properties":{"cell_index":24},"geometry":{"type":"Polygon","coordinates":[[[-93.64331799,45.03167806],[-93.67505306,45.03149489],[-93.67531776,45.05399797],[-93.64357025,45.05418129],[-93.64331799,45.03167806]]]}},{"type":"Feature","properties":{"cell_index":25},"geometry":{"type":"Polygon","coordinates":[[[-93.64357025,45.05418129],[-93.67531776,45.05399797],[-93.67558277,45.07650096],[-93.6438228,45.07668443],[-93.64357025,45.05418129]]]}},{"type":"Feature","properties":{"cell_index":26},"geometry":{"type":"Polygon","coordinates":[[[-93.6438228,45.07668443],[-93.67558277,45.07650096],[-93.67584809,45.09900387],[-93.64407565,45.09918747],[-93.6438228,45.07668443]]]}},{"type":"Feature","properties":{"cell_index":27},"geometry":{"type":"Polygon","coordinates":[[[-93.64407565,45.09918747],[-93.67584809,45.09900387],[-93.67611372,45.12150668],[-93.6443288,45.12169043],[-93.64407565,45.09918747]]]}},{"type":"Feature","properties":{"cell_index":28},"geometry":{"type":"Polygon","coordinates":[[[-93.6443288,45.12169043],[-93.67611372,45.12150668],[-93.67637967,45.1440094],[-93.64458225,45.14419329],[-93.6443288,45.12169043]]]}},{"type":"Feature","properties":{"cell_index":29},"geometry":{"type":"Polygon","coordinates":[[[-93.61014964,44.89683036],[-93.64181066,44.89665681],[-93.64206114,44.91916058],[-93.61038777,44.91933426],[-93.61014964,44.89683036]]]}},{"type":"Feature","properties":{"cell_index":30},"geometry":{"type":"Polygon","coordinates":[[[-93.61038777,44.91933426],[-93.64206114,44.91916058],[-93.64231192,44.94166426],[-93.61062618,44.94183807],[-93.61038777,44.91933426]]]}},{"type":"Feature","properties":{"cell_index":31},"geometry":{"type":"Polygon","coordinates":[[[-93.61062618,44.94183807],[-93.64231192,44.94166426],[-93.64256299,44.96416784],[-93.61086487,44.9643418],[-93.61062618,44.94183807]]]}},{"type":"Feature","properties":{"cell_index":32},"geometry":{"type":"Polygon","coordinates":[[[-93.61086487,44.9643418],[-93.64256299,44.96416784],[-93.64281436,44.98667134],[-93.61110384,44.98684543],[-93.61086487,44.9643418]]]}},{"type":"Feature","properties":{"cell_index":33},"geometry":{"type":"Polygon","coordinates":[[[-93.61110384,44.98684543],[-93.64281436,44.98667134],[-93.64306603,45.00917475],[-93.61134309,45.00934897],[-93.61110384,44.98684543]]]}},{"type":"Feature","properties":{"cell_index":34},"geometry":{"type":"Polygon","coordinates":[[[-93.61134309,45.00934897],[-93.64306603,45.00917475],[-93.64331799,45.03167806],[-93.61158262,45.03185242],[-93.61134309,45.00934897]]]}},{"type":"Feature","properties":{"cell_index":35},"geometry":{"type":"Polygon","coordinates":[[[-93.61158262,45.03185242],[-93.64331799,45.03167806],[-93.64357025,45.05418129],[-93.61182244,45.05435579],[-93.61158262,45.03185242]]]}},{"type":"Feature","properties":{"cell_index":36},"geometry":{"type":"Polygon","coordinates":[[[-93.61182244,45.05435579],[-93.64357025,45.05418129],[-93.6438228,45.07668443],[-93.61206253,45.07685906],[-93.61182244,45.05435579]]]}},{"type":"Feature","properties":{"cell_index":37},"geometry":{"type":"Polygon","coordinates":[[[-93.61206253,45.07685906],[-93.6438228,45.07668443],[-93.64407565,45.09918747],[-93.61230291,45.09936224],[-93.61206253,45.07685906]]]}},{"type":"Feature","properties":{"cell_index":38},"geometry":{"type":"Polygon","coordinates":[[[-93.61230291,45.09936224],[-93.64407565,45.09918747],[-93.6443288,45.12169043],[-93.61254358,45.12186533],[-93.61230291,45.09936224]]]}},{"type":"Feature","properties":{"cell_index":39},"geometry":{"type":"Polygon","coordinates":[[[-93.61254358,45.12186533],[-93.6443288,45.12169043],[-93.64458225,45.14419329],[-93.61278452,45.14436834],[-93.61254358,45.12186533]]]}},{"type":"Feature","properties":{"cell_index":40},"geometry":{"type":"Polygon","coordinates":[[[-93.57848834,44.89699513],[-93.61014964,44.89683036],[-93.61038777,44.91933426],[-93.57871411,44.91949916],[-93.57848834,44.89699513]]]}},{"type":"Feature","properties":{"cell_index":41},"geometry":{"type":"Polygon","coordinates":[[[-93.57871411,44.91949916],[-93.61038777,44.91933426],[-93.61062618,44.94183807],[-93.57894015,44.9420031],[-93.57871411,44.91949916]]]}},{"type":"Feature","properties":{"cell_index":42},"geometry":{"type":"Polygon","coordinates":[[[-93.57894015,44.9420031],[-93.61062618,44.94183807],[-93.61086487,44.9643418],[-93.57916646,44.96450695],[-93.57894015,44.9420031]]]}},{"type":"Feature","properties":{"cell_index":43},"geometry":{"type":"Polygon","coordinates":[[[-93.57916646,44.96450695],[-93.61086487,44.9643418],[-93.61110384,44.98684543],[-93.57939303,44.98701071],[-93.57916646,44.96450695]]]}},{"type":"Feature","properties":{"cell_index":44},"geometry":{"type":"Polygon","coordinates":[[[-93.57939303,44.98701071],[-93.61110384,44.98684543],[-93.61134309,45.00934897],[-93.57961987,45.00951438],[-93.57939303,44.98701071]]]}},{"type":"Feature","properties":{"cell_index":45},"geometry":{"type":"Polygon","coordinates":[[[-93.57961987,45.00951438],[-93.61134309,45.00934897],[-93.61158262,45.03185242],[-93.57984697,45.03201797],[-93.57961987,45.00951438]]]}},{"type":"Feature","properties":{"cell_index":46},"geometry":{"type":"Polygon","coordinates":[[[-93.57984697,45.03201797],[-93.61158262,45.03185242],[-93.61182244,45.05435579],[-93.58007435,45.05452146],[-93.57984697,45.03201797]]]}},{"type":"Feature","properties":{"cell_index":47},"geometry":{"type":"Polygon","coordinates":[[[-93.58007435,45.05452146],[-93.61182244,45.05435579],[-93.61206253,45.07685906],[-93.58030199,45.07702486],[-93.58007435,45.05452146]]]}},{"type":"Feature","properties":{"cell_index":48},"geometry":{"type":"Polygon","coordinates":[[[-93.58030199,45.07702486],[-93.61206253,45.07685906],[-93.61230291,45.09936224],[-93.5805299,45.09952817],[-93.58030199,45.07702486]]]}},{"type":"Feature","properties":{"cell_index":49},"geometry":{"type":"Polygon","coordinates":[[[-93.5805299,45.09952817],[-93.61230291,45.09936224],[-93.61254358,45.12186533],[-93.58075807,45.12203139],[-93.5805299,45.09952817]]]}},{"type":"Feature","properties":{"cell_index":50},"geometry":{"type":"Polygon","coordinates":[[[-93.58075807,45.12203139],[-93.61254358,45.12186533],[-93.61278452,45.14436834],[-93.58098652,45.14453452],[-93.58075807,45.12203139]]]}},{"type":"Feature","properties":{"cell_index":51},"geometry":{"type":"Polygon","coordinates":[[[-93.58098652,45.14453452],[-93.61278452,45.14436834],[-93.61302575,45.16687125],[-93.58121523,45.16703757],[-93.58098652,45.14453452]]]}},{"type":"Feature","properties":{"cell_index":52},"geometry":{"type":"Polygon","coordinates":[[[-93.58121523,45.16703757],[-93.61302575,45.16687125],[-93.61326727,45.18937407],[-93.58144422,45.18954052],[-93.58121523,45.16703757]]]}},{"type":"Feature","properties":{"cell_index":53},"geometry":{"type":"Polygon","coordinates":[[[-93.54682677,44.89715112],[-93.57848834,44.89699513],[-93.57871411,44.91949916],[-93.54704019,44.91965527],[-93.54682677,44.89715112]]]}},{"type":"Feature","properties":{"cell_index":54},"geometry":{"type":"Polygon","coordinates":[[[-93.54704019,44.91965527],[-93.57871411,44.91949916],[-93.57894015,44.9420031],[-93.54725386,44.94215933],[-93.54704019,44.91965527]]]}},{"type":"Feature","properties":{"cell_index":55},"geometry":{"type":"Polygon","coordinates":[[[-93.54725386,44.94215933],[-93.57894015,44.9420031],[-93.57916646,44.96450695],[-93.54746779,44.96466331],[-93.54725386,44.94215933]]]}},{"type":"Feature","properties":{"cell_index":56},"geometry":{"type":"Polygon","coordinates":[[[-93.54746779,44.96466331],[-93.57916646,44.96450695],[-93.57939303,44.98701071],[-93.54768196,44.98716719],[-93.54746779,44.96466331]]]}},{"type":"Feature","properties":{"cell_index":57},"geometry":{"type":"Polygon","coordinates":[[[-93.54768196,44.98716719],[-93.57939303,44.98701071],[-93.57961987,45.00951438],[-93.54789638,45.00967099],[-93.54768196,44.98716719]]]}},{"type":"Feature","properties":{"cell_index":58},"geometry":{"type":"Polygon","coordinates":[[[-93.54789638,45.00967099],[-93.57961987,45.00951438],[-93.57984697,45.03201797],[-93.54811106,45.03217469],[-93.54789638,45.00967099]]]}},{"type":"Feature","properties":{"cell_index":59},"geometry":{"type":"Polygon","coordinates":[[[-93.54811106,45.03217469],[-93.57984697,45.03201797],[-93.58007435,45.05452146],[-93.54832599,45.0546783],[-93.54811106,45.03217469]]]}},{"type":"Feature","properties":{"cell_index":60},"geometry":{"type":"Polygon","coordinates":[[[-93.54832599,45.0546783],[-93.58007435,45.05452146],[-93.58030199,45.07702486],[-93.54854117,45.07718183],[-93.54832599,45.0546783]]]}},{"type":"Feature","properties":{"cell_index":61},"geometry":{"type":"Polygon","coordinates":[[[-93.54854117,45.07718183],[-93.58030199,45.07702486],[-93.5805299,45.09952817],[-93.54875661,45.09968526],[-93.54854117,45.07718183]]]}},{"type":"Feature","properties":{"cell_index":62},"geometry":{"type":"Polygon","coordinates":[[[-93.54875661,45.09968526],[-93.5805299,45.09952817],[-93.58075807,45.12203139],[-93.5489723,45.12218861],[-93.54875661,45.09968526]]]}},{"type":"Feature","properties":{"cell_index":63},"geometry":{"type":"Polygon","coordinates":[[[-93.5489723,45.12218861],[-93.58075807,45.12203139],[-93.58098652,45.14453452],[-93.54918824,45.14469186],[-93.5489723,45.12218861]]]}},{"type":"Feature","properties":{"cell_index":64},"geometry":{"type":"Polygon","coordinates":[[[-93.54918824,45.14469186],[-93.58098652,45.14453452],[-93.58121523,45.16703757],[-93.54940444,45.16719503],[-93.54918824,45.14469186]]]}},{"type":"Feature","properties":{"cell_index":65},"geometry":{"type":"Polygon","coordinates":[[[-93.54940444,45.16719503],[-93.58121523,45.16703757],[-93.58144422,45.18954052],[-93.54962089,45.1896981],[-93.54940444,45.16719503]]]}},{"type":"Feature","properties":{"cell_index":66},"geometry":{"type":"Polygon","coordinates":[[[-93.54962089,45.1896981],[-93.58144422,45.18954052],[-93.58167347,45.21204338],[-93.5498376,45.21220109],[-93.54962089,45.1896981]]]}},{"type":"Feature","properties":{"cell_index":67},"geometry":{"type":"Polygon","coordinates":[[[-93.51516496,44.89729833],[-93.54682677,44.89715112],[-93.54704019,44.91965527],[-93.51536602,44.9198026],[-93.51516496,44.89729833]]]}},{"type":"Feature","properties":{"cell_index":68},"geometry":{"type":"Polygon","coordinates":[[[-93.51536602,44.9198026],[-93.54704019,44.91965527],[-93.54725386,44.94215933],[-93.51556732,44.94230678],[-93.51536602,44.9198026]]]}},{"type":"Feature","properties":{"cell_index":69},"geometry":{"type":"Polygon","coordinates":[[[-93.51556732,44.94230678],[-93.54725386,44.94215933],[-93.54746779,44.96466331],[-93.51576886,44.96481087],[-93.51556732,44.94230678]]]}},{"type":"Feature","properties":{"cell_index":70},"geometry":{"type":"Polygon","coordinates":[[[-93.51576886,44.96481087],[-93.54746779,44.96466331],[-93.54768196,44.98716719],[-93.51597063,44.98731487],[-93.51576886,44.96481087]]]}},{"type":"Feature","properties":{"cell_index":71},"geometry":{"type":"Polygon","coordinates":[[[-93.51597063,44.98731487],[-93.54768196,44.98716719],[-93.54789638,45.00967099],[-93.51617264,45.00981878],[-93.51597063,44.98731487]]]}},{"type":"Feature","properties":{"cell_index":72},"geometry":{"type":"Polygon","coordinates":[[[-93.51617264,45.00981878],[-93.54789638,45.00967099],[-93.54811106,45.03217469],[-93.51637489,45.03232259],[-93.51617264,45.00981878]]]}},{"type":"Feature","properties":{"cell_index":73},"geometry":{"type":"Polygon","coordinates":[[[-93.51637489,45.03232259],[-93.54811106,45.03217469],[-93.54832599,45.0546783],[-93.51657738,45.05482632],[-93.51637489,45.03232259]]]}},{"type":"Feature","properties":{"cell_index":74},"geometry":{"type":"Polygon","coordinates":[[[-93.51657738,45.05482632],[-93.54832599,45.0546783],[-93.54854117,45.07718183],[-93.5167801,45.07732996],[-93.51657738,45.05482632]]]}},{"type":"Feature","properties":{"cell_index":75},"geometry":{"type":"Polygon","coordinates":[[[-93.5167801,45.07732996],[-93.54854117,45.07718183],[-93.54875661,45.09968526],[-93.51698307,45.09983351],[-93.5167801,45.07732996]]]}},{"type":"Feature","properties":{"cell_index":76},"geometry":{"type":"Polygon","coordinates":[[[-93.51698307,45.09983351],[-93.54875661,45.09968526],[-93.5489723,45.12218861],[-93.51718627,45.12233697],[-93.51698307,45.09983351]]]}},{"type":"Feature","properties":{"cell_index":77},"geometry":{"type":"Polygon","coordinates":[[[-93.51718627,45.12233697],[-93.5489723,45.12218861],[-93.54918824,45.14469186],[-93.51738971,45.14484034],[-93.51718627,45.12233697]]]}},{"type":"Feature","properties":{"cell_index":78},"geometry":{"type":"Polygon","coordinates":[[[-93.51738971,45.14484034],[-93.54918824,45.14469186],[-93.54940444,45.16719503],[-93.51759339,45.16734362],[-93.51738971,45.14484034]]]}},{"type":"Feature","properties":{"cell_index":79},"geometry":{"type":"Polygon","coordinates":[[[-93.51759339,45.16734362],[-93.54940444,45.16719503],[-93.54962089,45.1896981],[-93.51779731,45.18984682],[-93.51759339,45.16734362]]]}},{"type":"Feature","properties":{"cell_index":80},"geometry":{"type":"Polygon","coordinates":[[[-93.51779731,45.18984682],[-93.54962089,45.1896981],[-93.5498376,45.21220109],[-93.51800148,45.21234992],[-93.51779731,45.18984682]]]}},{"type":"Feature","properties":{"cell_index":81},"geometry":{"type":"Polygon","coordinates":[[[-93.48293812,44.8299231],[-93.51456318,44.82978499],[-93.51476354,44.85228953],[-93.48312616,44.85242775],[-93.48293812,44.8299231]]]}},{"type":"Feature","properties":{"cell_index":82},"geometry":{"type":"Polygon","coordinates":[[[-93.48312616,44.85242775],[-93.51476354,44.85228953],[-93.51496413,44.87479397],[-93.48331442,44.8749323],[-93.48312616,44.85242775]]]}},{"type":"Feature","properties":{"cell_index":83},"geometry":{"type":"Polygon","coordinates":[[[-93.48331442,44.8749323],[-93.51496413,44.87479397],[-93.51516496,44.89729833],[-93.48350291,44.89743677],[-93.48331442,44.8749323]]]}},{"type":"Feature","properties":{"cell_index":84},"geometry":{"type":"Polygon","coordinates":[[[-93.48350291,44.89743677],[-93.51516496,44.89729833],[-93.51536602,44.9198026],[-93.48369162,44.91994115],[-93.48350291,44.89743677]]]}},{"type":"Feature","properties":{"cell_index":85},"geometry":{"type":"Polygon","coordinates":[[[-93.48369162,44.91994115],[-93.51536602,44.9198026],[-93.51556732,44.94230678],[-93.48388055,44.94244543],[-93.48369162,44.91994115]]]}},{"type":"Feature","properties":{"cell_index":86},"geometry":{"type":"Polygon","coordinates":[[[-93.48388055,44.94244543],[-93.51556732,44.94230678],[-93.51576886,44.96481087],[-93.4840697,44.96494963],[-93.48388055,44.94244543]]]}},{"type":"Feature","properties":{"cell_index":87},"geometry":{"type":"Polygon","coordinates":[[[-93.4840697,44.96494963],[-93.51576886,44.96481087],[-93.51597063,44.98731487],[-93.48425907,44.98745374],[-93.4840697,44.96494963]]]}},{"type":"Feature","properties":{"cell_index":88},"geometry":{"type":"Polygon","coordinates":[[[-93.48425907,44.98745374],[-93.51597063,44.98731487],[-93.51617264,45.00981878],[-93.48444867,45.00995775],[-93.48425907,44.98745374]]]}},{"type":"Feature","properties":{"cell_index":89},"geometry":{"type":"Polygon","coordinates":[[[-93.48444867,45.00995775],[-93.51617264,45.00981878],[-93.51637489,45.03232259],[-93.48463849,45.03246168],[-93.48444867,45.00995775]]]}},{"type":"Feature","properties":{"cell_index":90},"geometry":{"type":"Polygon","coordinates":[[[-93.48463849,45.03246168],[-93.51637489,45.03232259],[-93.51657738,45.05482632],[-93.48482853,45.05496552],[-93.48463849,45.03246168]]]}},{"type":"Feature","properties":{"cell_index":91},"geometry":{"type":"Polygon","coordinates":[[[-93.48482853,45.05496552],[-93.51657738,45.05482632],[-93.5167801,45.07732996],[-93.4850188,45.07746927],[-93.48482853,45.05496552]]]}},{"type":"Feature","properties":{"cell_index":92},"geometry":{"type":"Polygon","coordinates":[[[-93.4850188,45.07746927],[-93.5167801,45.07732996],[-93.51698307,45.09983351],[-93.48520929,45.09997293],[-93.4850188,45.07746927]]]}},{"type":"Feature","properties":{"cell_index":93},"geometry":{"type":"Polygon","coordinates":[[[-93.48520929,45.09997293],[-93.51698307,45.09983351],[-93.51718627,45.12233697],[-93.4854,45.12247649],[-93.48520929,45.09997293]]]}},{"type":"Feature","properties":{"cell_index":94},"geometry":{"type":"Polygon","coordinates":[[[-93.4854,45.12247649],[-93.51718627,45.12233697],[-93.51738971,45.14484034],[-93.48559094,45.14497997],[-93.4854,45.12247649]]]}},{"type":"Feature","properties":{"cell_index":95},"geometry":{"type":"Polygon","coordinates":[[[-93.48559094,45.14497997],[-93.51738971,45.14484034],[-93.51759339,45.16734362],[-93.4857821,45.16748336],[-93.48559094,45.14497997]]]}},{"type":"Feature","properties":{"cell_index":96},"geometry":{"type":"Polygon","coordinates":[[[-93.4857821,45.16748336],[-93.51759339,45.16734362],[-93.51779731,45.18984682],[-93.48597349,45.18998666],[-93.4857821,45.16748336]]]}},{"type":"Feature","properties":{"cell_index":97},"geometry":{"type":"Polygon","coordinates":[[[-93.48597349,45.18998666],[-93.51779731,45.18984682],[-93.51800148,45.21234992],[-93.48616511,45.21248987],[-93.48597349,45.18998666]]]}},{"type":"Feature","properties":{"cell_index":98},"geometry":{"type":"Polygon","coordinates":[[[-93.4511373,44.80754762],[-93.48275029,44.80741837],[-93.48293812,44.8299231],[-93.45131283,44.83005246],[-93.4511373,44.80754762]]]}},{"type":"Feature","properties":{"cell_index":99},"geometry":{"type":"Polygon","coordinates":[[[-93.45131283,44.83005246],[-93.48293812,44.8299231],[-93.48312616,44.85242775],[-93.45148856,44.8525572],[-93.45131283,44.83005246]]]}},{"type":"Feature","properties":{"cell_index":100},"geometry":{"type":"Polygon","coordinates":[[[-93.45148856,44.8525572],[-93.48312616,44.85242775],[-93.48331442,44.8749323],[-93.45166449,44.87506186],[-93.45148856,44.8525572]]]}},{"type":"Feature","properties":{"cell_index":101},"geometry":{"type":"Polygon","coordinates":[[[-93.45166449,44.87506186],[-93.48331442,44.8749323],[-93.48350291,44.89743677],[-93.45184064,44.89756643],[-93.45166449,44.87506186]]]}},{"type":"Feature","properties":{"cell_index":102},"geometry":{"type":"Polygon","coordinates":[[[-93.45184064,44.89756643],[-93.48350291,44.89743677],[-93.48369162,44.91994115],[-93.45201699,44.92007091],[-93.45184064,44.89756643]]]}},{"type":"Feature","properties":{"cell_index":103},"geometry":{"type":"Polygon","coordinates":[[[-93.45201699,44.92007091],[-93.48369162,44.91994115],[-93.48388055,44.94244543],[-93.45219355,44.94257529],[-93.45201699,44.92007091]]]}},{"type":"Feature","properties":{"cell_index":104},"geometry":{"type":"Polygon","coordinates":[[[-93.45219355,44.94257529],[-93.48388055,44.94244543],[-93.4840697,44.96494963],[-93.45237031,44.96507959],[-93.45219355,44.94257529]]]}},{"type":"Feature","properties":{"cell_index":105},"geometry":{"type":"Polygon","coordinates":[[[-93.45237031,44.96507959],[-93.4840697,44.96494963],[-93.48425907,44.98745374],[-93.45254729,44.9875838],[-93.45237031,44.96507959]]]}},{"type":"Feature","properties":{"cell_index":106},"geometry":{"type":"Polygon","coordinates":[[[-93.45254729,44.9875838],[-93.48425907,44.98745374],[-93.48444867,45.00995775],[-93.45272447,45.01008792],[-93.45254729,44.9875838]]]}},{"type":"Feature","properties":{"cell_index":107},"geometry":{"type":"Polygon","coordinates":[[[-93.45272447,45.01008792],[-93.48444867,45.00995775],[-93.48463849,45.03246168],[-93.45290186,45.03259195],[-93.45272447,45.01008792]]]}},{"type":"Feature","properties":{"cell_index":108},"geometry":{"type":"Polygon","coordinates":[[[-93.45290186,45.03259195],[-93.48463849,45.03246168],[-93.48482853,45.05496552],[-93.45307946,45.05509589],[-93.45290186,45.03259195]]]}},{"type":"Feature","properties":{"cell_index":109},"geometry":{"type":"Polygon","coordinates":[[[-93.45307946,45.05509589],[-93.48482853,45.05496552],[-93.4850188,45.07746927],[-93.45325726,45.07759974],[-93.45307946,45.05509589]]]}},{"type":"Feature","properties":{"cell_index":110},"geometry":{"type":"Polygon","coordinates":[[[-93.45325726,45.07759974],[-93.4850188,45.07746927],[-93.48520929,45.09997293],[-93.45343528,45.1001035],[-93.45325726,45.07759974]]]}},{"type":"Feature","properties":{"cell_index":111},"geometry":{"type":"Polygon","coordinates":[[[-93.45343528,45.1001035],[-93.48520929,45.09997293],[-93.4854,45.12247649],[-93.45361351,45.12260717],[-93.45343528,45.1001035]]]}},{"type":"Feature","properties":{"cell_index":112},"geometry":{"type":"Polygon","coordinates":[[[-93.45361351,45.12260717],[-93.4854,45.12247649],[-93.48559094,45.14497997],[-93.45379194,45.14511075],[-93.45361351,45.12260717]]]}},{"type":"Feature","properties":{"cell_index":113},"geometry":{"type":"Polygon","coordinates":[[[-93.45379194,45.14511075],[-93.48559094,45.14497997],[-93.4857821,45.16748336],[-93.45397059,45.16761424],[-93.45379194,45.14511075]]]}},{"type":"Feature","properties":{"cell_index":114},"geometry":{"type":"Polygon","coordinates":[[[-93.45397059,45.16761424],[-93.4857821,45.16748336],[-93.48597349,45.18998666],[-93.45414945,45.19011765],[-93.45397059,45.16761424]]]}},{"type":"Feature","properties":{"cell_index":115},"geometry":{"type":"Polygon","coordinates":[[[-93.45414945,45.19011765],[-93.48597349,45.18998666],[-93.48616511,45.21248987],[-93.45432852,45.21262096],[-93.45414945,45.19011765]]]}},{"type":"Feature","properties":{"cell_index":116},"geometry":{"type":"Polygon","coordinates":[[[-93.41968733,44.83017306],[-93.45131283,44.83005246],[-93.45148856,44.8525572],[-93.41985075,44.8526779],[-93.41968733,44.83017306]]]}},{"type":"Feature","properties":{"cell_index":117},"geometry":{"type":"Polygon","coordinates":[[[-93.41985075,44.8526779],[-93.45148856,44.8525572],[-93.45166449,44.87506186],[-93.42001436,44.87518265],[-93.41985075,44.8526779]]]}},{"type":"Feature","properties":{"cell_index":118},"geometry":{"type":"Polygon","coordinates":[[[-93.42001436,44.87518265],[-93.45166449,44.87506186],[-93.45184064,44.89756643],[-93.42017816,44.89768731],[-93.42001436,44.87518265]]]}},{"type":"Feature","properties":{"cell_index":119},"geometry":{"type":"Polygon","coordinates":[[[-93.42017816,44.89768731],[-93.45184064,44.89756643],[-93.45201699,44.92007091],[-93.42034215,44.92019188],[-93.42017816,44.89768731]]]}},{"type":"Feature","properties":{"cell_index":120},"geometry":{"type":"Polygon","coordinates":[[[-93.42034215,44.92019188],[-93.45201699,44.92007091],[-93.45219355,44.94257529],[-93.42050634,44.94269636],[-93.42034215,44.92019188]]]}},{"type":"Feature","properties":{"cell_index":121},"geometry":{"type":"Polygon","coordinates":[[[-93.42050634,44.94269636],[-93.45219355,44.94257529],[-93.45237031,44.96507959],[-93.42067072,44.96520076],[-93.42050634,44.94269636]]]}},{"type":"Feature","properties":{"cell_index":122},"geometry":{"type":"Polygon","coordinates":[[[-93.42067072,44.96520076],[-93.45237031,44.96507959],[-93.45254729,44.9875838],[-93.42083529,44.98770506],[-93.42067072,44.96520076]]]}},{"type":"Feature","properties":{"cell_index":123},"geometry":{"type":"Polygon","coordinates":[[[-93.42083529,44.98770506],[-93.45254729,44.9875838],[-93.45272447,45.01008792],[-93.42100006,45.01020927],[-93.42083529,44.98770506]]]}},{"type":"Feature","properties":{"cell_index":124},"geometry":{"type":"Polygon","coordinates":[[[-93.42100006,45.01020927],[-93.45272447,45.01008792],[-93.45290186,45.03259195],[-93.42116502,45.0327134],[-93.42100006,45.01020927]]]}},{"type":"Feature","properties":{"cell_index":125},"geometry":{"type":"Polygon","coordinates":[[[-93.42116502,45.0327134],[-93.45290186,45.03259195],[-93.45307946,45.05509589],[-93.42133017,45.05521743],[-93.42116502,45.0327134]]]}},{"type":"Feature","properties":{"cell_index":126},"geometry":{"type":"Polygon","coordinates":[[[-93.42133017,45.05521743],[-93.45307946,45.05509589],[-93.45325726,45.07759974],[-93.42149552,45.07772138],[-93.42133017,45.05521743]]]}},{"type":"Feature","properties":{"cell_index":127},"geometry":{"type":"Polygon","coordinates":[[[-93.42149552,45.07772138],[-93.45325726,45.07759974],[-93.45343528,45.1001035],[-93.42166107,45.10022523],[-93.42149552,45.07772138]]]}},{"type":"Feature","properties":{"cell_index":128},"geometry":{"type":"Polygon","coordinates":[[[-93.42166107,45.10022523],[-93.45343528,45.1001035],[-93.45361351,45.12260717],[-93.42182681,45.122729],[-93.42166107,45.10022523]]]}},{"type":"Feature","properties":{"cell_index":129},"geometry":{"type":"Polygon","coordinates":[[[-93.42182681,45.122729],[-93.45361351,45.12260717],[-93.45379194,45.14511075],[-93.42199274,45.14523267],[-93.42182681,45.122729]]]}},{"type":"Feature","properties":{"cell_index":130},"geometry":{"type":"Polygon","coordinates":[[[-93.42199274,45.14523267],[-93.45379194,45.14511075],[-93.45397059,45.16761424],[-93.42215887,45.16773626],[-93.42199274,45.14523267]]]}},{"type":"Feature","properties":{"cell_index":131},"geometry":{"type":"Polygon","coordinates":[[[-93.42215887,45.16773626],[-93.45397059,45.16761424],[-93.45414945,45.19011765],[-93.42232519,45.19023976],[-93.42215887,45.16773626]]]}},{"type":"Feature","properties":{"cell_index":132},"geometry":{"type":"Polygon","coordinates":[[[-93.38806164,44.8302849],[-93.41968733,44.83017306],[-93.41985075,44.8526779],[-93.38821275,44.85278983],[-93.38806164,44.8302849]]]}},{"type":"Feature","properties":{"cell_index":133},"geometry":{"type":"Polygon","coordinates":[[[-93.38821275,44.85278983],[-93.41985075,44.8526779],[-93.42001436,44.87518265],[-93.38836403,44.87529466],[-93.38821275,44.85278983]]]}},{"type":"Feature","properties":{"cell_index":134},"geometry":{"type":"Polygon","coordinates":[[[-93.38836403,44.87529466],[-93.42001436,44.87518265],[-93.42017816,44.89768731],[-93.38851549,44.89779941],[-93.38836403,44.87529466]]]}},{"type":"Feature","properties":{"cell_index":135},"geometry":{"type":"Polygon","coordinates":[[[-93.38851549,44.89779941],[-93.42017816,44.89768731],[-93.42034215,44.92019188],[-93.38866712,44.92030407],[-93.38851549,44.89779941]]]}},{"type":"Feature","properties":{"cell_index":136},"geometry":{"type":"Polygon","coordinates":[[[-93.38866712,44.92030407],[-93.42034215,44.92019188],[-93.42050634,44.94269636],[-93.38881894,44.94280864],[-93.38866712,44.92030407]]]}},{"type":"Feature","properties":{"cell_index":137},"geometry":{"type":"Polygon","coordinates":[[[-93.38881894,44.94280864],[-93.42050634,44.94269636],[-93.42067072,44.96520076],[-93.38897093,44.96531312],[-93.38881894,44.94280864]]]}},{"type":"Feature","properties":{"cell_index":138},"geometry":{"type":"Polygon","coordinates":[[[-93.38897093,44.96531312],[-93.42067072,44.96520076],[-93.42083529,44.98770506],[-93.38912311,44.98781751],[-93.38897093,44.96531312]]]}},{"type":"Feature","properties":{"cell_index":139},"geometry":{"type":"Polygon","coordinates":[[[-93.38912311,44.98781751],[-93.42083529,44.98770506],[-93.42100006,45.01020927],[-93.38927546,45.01032182],[-93.38912311,44.98781751]]]}},{"type":"Feature","properties":{"cell_index":140},"geometry":{"type":"Polygon","coordinates":[[[-93.38927546,45.01032182],[-93.42100006,45.01020927],[-93.42116502,45.0327134],[-93.38942799,45.03282603],[-93.38927546,45.01032182]]]}},{"type":"Feature","properties":{"cell_index":141},"geometry":{"type":"Polygon","coordinates":[[[-93.38942799,45.03282603],[-93.42116502,45.0327134],[-93.42133017,45.05521743],[-93.3895807,45.05533015],[-93.38942799,45.03282603]]]}},{"type":"Feature","properties":{"cell_index":142},"geometry":{"type":"Polygon","coordinates":[[[-93.3895807,45.05533015],[-93.42133017,45.05521743],[-93.42149552,45.07772138],[-93.38973359,45.07783418],[-93.3895807,45.05533015]]]}},{"type":"Feature","properties":{"cell_index":143},"geometry":{"type":"Polygon","coordinates":[[[-93.38973359,45.07783418],[-93.42149552,45.07772138],[-93.42166107,45.10022523],[-93.38988666,45.10033813],[-93.38973359,45.07783418]]]}},{"type":"Feature","properties":{"cell_index":144},"geometry":{"type":"Polygon","coordinates":[[[-93.38988666,45.10033813],[-93.42166107,45.10022523],[-93.42182681,45.122729],[-93.39003991,45.12284198],[-93.38988666,45.10033813]]]}},{"type":"Feature","properties":{"cell_index":145},"geometry":{"type":"Polygon","coordinates":[[[-93.39003991,45.12284198],[-93.42182681,45.122729],[-93.42199274,45.14523267],[-93.39019334,45.14534574],[-93.39003991,45.12284198]]]}},{"type":"Feature","properties":{"cell_index":146},"geometry":{"type":"Polygon","coordinates":[[[-93.39019334,45.14534574],[-93.42199274,45.14523267],[-93.42215887,45.16773626],[-93.39034695,45.16784942],[-93.39019334,45.14534574]]]}},{"type":"Feature","properties":{"cell_index":147},"geometry":{"type":"Polygon","coordinates":[[[-93.35629715,44.80788289],[-93.38791072,44.80777988],[-93.38806164,44.8302849],[-93.35643578,44.83038798],[-93.35629715,44.80788289]]]}},{"type":"Feature","properties":{"cell_index":148},"geometry":{"type":"Polygon","coordinates":[[[-93.35643578,44.83038798],[-93.38806164,44.8302849],[-93.38821275,44.85278983],[-93.35657457,44.85289299],[-93.35643578,44.83038798]]]}},{"type":"Feature","properties":{"cell_index":149},"geometry":{"type":"Polygon","coordinates":[[[-93.35657457,44.85289299],[-93.38821275,44.85278983],[-93.38836403,44.87529466],[-93.35671352,44.87539791],[-93.35657457,44.85289299]]]}},{"type":"Feature","properties":{"cell_index":150},"geometry":{"type":"Polygon","coordinates":[[[-93.35671352,44.87539791],[-93.38836403,44.87529466],[-93.38851549,44.89779941],[-93.35685264,44.89790274],[-93.35671352,44.87539791]]]}},{"type":"Feature","properties":{"cell_index":151},"geometry":{"type":"Polygon","coordinates":[[[-93.35685264,44.89790274],[-93.38851549,44.89779941],[-93.38866712,44.92030407],[-93.35699192,44.92040748],[-93.35685264,44.89790274]]]}},{"type":"Feature","properties":{"cell_index":152},"geometry":{"type":"Polygon","coordinates":[[[-93.35699192,44.92040748],[-93.38866712,44.92030407],[-93.38881894,44.94280864],[-93.35713136,44.94291213],[-93.35699192,44.92040748]]]}},{"type":"Feature","properties":{"cell_index":153},"geometry":{"type":"Polygon","coordinates":[[[-93.35713136,44.94291213],[-93.38881894,44.94280864],[-93.38897093,44.96531312],[-93.35727097,44.96541669],[-93.35713136,44.94291213]]]}},{"type":"Feature","properties":{"cell_index":154},"geometry":{"type":"Polygon","coordinates":[[[-93.35727097,44.96541669],[-93.38897093,44.96531312],[-93.38912311,44.98781751],[-93.35741074,44.98792116],[-93.35727097,44.96541669]]]}},{"type":"Feature","properties":{"cell_index":155},"geometry":{"type":"Polygon","coordinates":[[[-93.35741074,44.98792116],[-93.38912311,44.98781751],[-93.38927546,45.01032182],[-93.35755068,45.01042554],[-93.35741074,44.98792116]]]}},{"type":"Feature","properties":{"cell_index":156},"geometry":{"type":"Polygon","coordinates":[[[-93.35755068,45.01042554],[-93.38927546,45.01032182],[-93.38942799,45.03282603],[-93.35769078,45.03292984],[-93.35755068,45.01042554]]]}},{"type":"Feature","properties":{"cell_index":157},"geometry":{"type":"Polygon","coordinates":[[[-93.35769078,45.03292984],[-93.38942799,45.03282603],[-93.3895807,45.05533015],[-93.35783104,45.05543404],[-93.35769078,45.03292984]]]}},{"type":"Feature","properties":{"cell_index":158},"geometry":{"type":"Polygon","coordinates":[[[-93.35783104,45.05543404],[-93.3895807,45.05533015],[-93.38973359,45.07783418],[-93.35797147,45.07793816],[-93.35783104,45.05543404]]]}},{"type":"Feature","properties":{"cell_index":159},"geometry":{"type":"Polygon","coordinates":[[[-93.35797147,45.07793816],[-93.38973359,45.07783418],[-93.38988666,45.10033813],[-93.35811207,45.10044218],[-93.35797147,45.07793816]]]}},{"type":"Feature","properties":{"cell_index":160},"geometry":{"type":"Polygon","coordinates":[[[-93.35811207,45.10044218],[-93.38988666,45.10033813],[-93.39003991,45.12284198],[-93.35825283,45.12294612],[-93.35811207,45.10044218]]]}},{"type":"Feature","properties":{"cell_index":161},"geometry":{"type":"Polygon","coordinates":[[[-93.35825283,45.12294612],[-93.39003991,45.12284198],[-93.39019334,45.14534574],[-93.35839376,45.14544996],[-93.35825283,45.12294612]]]}},{"type":"Feature","properties":{"cell_index":162},"geometry":{"type":"Polygon","coordinates":[[[-93.35839376,45.14544996],[-93.39019334,45.14534574],[-93.39034695,45.16784942],[-93.35853485,45.16795372],[-93.35839376,45.14544996]]]}},{"type":"Feature","properties":{"cell_index":163},"geometry":{"type":"Polygon","coordinates":[[[-93.32468342,44.80797714],[-93.35629715,44.80788289],[-93.35643578,44.83038798],[-93.32480975,44.83048231],[-93.32468342,44.80797714]]]}},{"type":"Feature","properties":{"cell_index":164},"geometry":{"type":"Polygon","coordinates":[[[-93.32480975,44.83048231],[-93.35643578,44.83038798],[-93.35657457,44.85289299],[-93.32493623,44.85298739],[-93.32480975,44.83048231]]]}},{"type":"Feature","properties":{"cell_index":165},"geometry":{"type":"Polygon","coordinates":[[[-93.32493623,44.85298739],[-93.35657457,44.85289299],[-93.35671352,44.87539791],[-93.32506285,44.87549238],[-93.32493623,44.85298739]]]}},{"type":"Feature","properties":{"cell_index":166},"geometry":{"type":"Polygon","coordinates":[[[-93.32506285,44.87549238],[-93.35671352,44.87539791],[-93.35685264,44.89790274],[-93.32518962,44.89799729],[-93.32506285,44.87549238]]]}},{"type":"Feature","properties":{"cell_index":167},"geometry":{"type":"Polygon","coordinates":[[[-93.32518962,44.89799729],[-93.35685264,44.89790274],[-93.35699192,44.92040748],[-93.32531655,44.9205021],[-93.32518962,44.89799729]]]}},{"type":"Feature","properties":{"cell_index":168},"geometry":{"type":"Polygon","coordinates":[[[-93.32531655,44.9205021],[-93.35699192,44.92040748],[-93.35713136,44.94291213],[-93.32544362,44.94300682],[-93.32531655,44.9205021]]]}},{"type":"Feature","properties":{"cell_index":169},"geometry":{"type":"Polygon","coordinates":[[[-93.32544362,44.94300682],[-93.35713136,44.94291213],[-93.35727097,44.96541669],[-93.32557084,44.96551146],[-93.32544362,44.94300682]]]}},{"type":"Feature","properties":{"cell_index":170},"geometry":{"type":"Polygon","coordinates":[[[-93.32557084,44.96551146],[-93.35727097,44.96541669],[-93.35741074,44.98792116],[-93.32569821,44.98801601],[-93.32557084,44.96551146]]]}},{"type":"Feature","properties":{"cell_index":171},"geometry":{"type":"Polygon","coordinates":[[[-93.32569821,44.98801601],[-93.35741074,44.98792116],[-93.35755068,45.01042554],[-93.32582573,45.01052046],[-93.32569821,44.98801601]]]}},{"type":"Feature","properties":{"cell_index":172},"geometry":{"type":"Polygon","coordinates":[[[-93.32582573,45.01052046],[-93.35755068,45.01042554],[-93.35769078,45.03292984],[-93.3259534,45.03302483],[-93.32582573,45.01052046]]]}},{"type":"Feature","properties":{"cell_index":173},"geometry":{"type":"Polygon","coordinates":[[[-93.3259534,45.03302483],[-93.35769078,45.03292984],[-93.35783104,45.05543404],[-93.32608122,45.05552911],[-93.3259534,45.03302483]]]}},{"type":"Feature","properties":{"cell_index":174},"geometry":{"type":"Polygon","coordinates":[[[-93.32608122,45.05552911],[-93.35783104,45.05543404],[-93.35797147,45.07793816],[-93.32620919,45.07803329],[-93.32608122,45.05552911]]]}},{"type":"Feature","properties":{"cell_index":175},"geometry":{"type":"Polygon","coordinates":[[[-93.32620919,45.07803329],[-93.35797147,45.07793816],[-93.35811207,45.10044218],[-93.32633731,45.10053739],[-93.32620919,45.07803329]]]}},{"type":"Feature","properties":{"cell_index":176},"geometry":{"type":"Polygon","coordinates":[[[-93.32633731,45.10053739],[-93.35811207,45.10044218],[-93.35825283,45.12294612],[-93.32646558,45.1230414],[-93.32633731,45.10053739]]]}},{"type":"Feature","properties":{"cell_index":177},"geometry":{"type":"Polygon","coordinates":[[[-93.32646558,45.1230414],[-93.35825283,45.12294612],[-93.35839376,45.14544996],[-93.32659401,45.14554532],[-93.32646558,45.1230414]]]}},{"type":"Feature","properties":{"cell_index":178},"geometry":{"type":"Polygon","coordinates":[[[-93.29306955,44.80806264],[-93.32468342,44.80797714],[-93.32480975,44.83048231],[-93.29318358,44.83056788],[-93.29306955,44.80806264]]]}},{"type":"Feature","properties":{"cell_index":179},"geometry":{"type":"Polygon","coordinates":[[[-93.29318358,44.83056788],[-93.32480975,44.83048231],[-93.32493623,44.85298739],[-93.29329774,44.85307303],[-93.29318358,44.83056788]]]}},{"type":"Feature","properties":{"cell_index":180},"geometry":{"type":"Polygon","coordinates":[[[-93.29329774,44.85307303],[-93.32493623,44.85298739],[-93.32506285,44.87549238],[-93.29341203,44.87557809],[-93.29329774,44.85307303]]]}},{"type":"Feature","properties":{"cell_index":181},"geometry":{"type":"Polygon","coordinates":[[[-93.29341203,44.87557809],[-93.32506285,44.87549238],[-93.32518962,44.89799729],[-93.29352646,44.89808306],[-93.29341203,44.87557809]]]}},{"type":"Feature","properties":{"cell_index":182},"geometry":{"type":"Polygon","coordinates":[[[-93.29352646,44.89808306],[-93.32518962,44.89799729],[-93.32531655,44.9205021],[-93.29364103,44.92058794],[-93.29352646,44.89808306]]]}},{"type":"Feature","properties":{"cell_index":183},"geometry":{"type":"Polygon","coordinates":[[[-93.29364103,44.92058794],[-93.32531655,44.9205021],[-93.32544362,44.94300682],[-93.29375573,44.94309273],[-93.29364103,44.92058794]]]}},{"type":"Feature","properties":{"cell_index":184},"geometry":{"type":"Polygon","coordinates":[[[-93.29375573,44.94309273],[-93.32544362,44.94300682],[-93.32557084,44.96551146],[-93.29387056,44.96559743],[-93.29375573,44.94309273]]]}},{"type":"Feature","properties":{"cell_index":185},"geometry":{"type":"Polygon","coordinates":[[[-93.29387056,44.96559743],[-93.32557084,44.96551146],[-93.32569821,44.98801601],[-93.29398553,44.98810204],[-93.29387056,44.96559743]]]}},{"type":"Feature","properties":{"cell_index":186},"geometry":{"type":"Polygon","coordinates":[[[-93.29398553,44.98810204],[-93.32569821,44.98801601],[-93.32582573,45.01052046],[-93.29410063,45.01060657],[-93.29398553,44.98810204]]]}},{"type":"Feature","properties":{"cell_index":187},"geometry":{"type":"Polygon","coordinates":[[[-93.29410063,45.01060657],[-93.32582573,45.01052046],[-93.3259534,45.03302483],[-93.29421587,45.033111],[-93.29410063,45.01060657]]]}},{"type":"Feature","properties":{"cell_index":188},"geometry":{"type":"Polygon","coordinates":[[[-93.29421587,45.033111],[-93.3259534,45.03302483],[-93.32608122,45.05552911],[-93.29433125,45.05561535],[-93.29421587,45.033111]]]}},{"type":"Feature","properties":{"cell_index":189},"geometry":{"type":"Polygon","coordinates":[[[-93.29433125,45.05561535],[-93.32608122,45.05552911],[-93.32620919,45.07803329],[-93.29444676,45.0781196],[-93.29433125,45.05561535]]]}},{"type":"Feature","properties":{"cell_index":190},"geometry":{"type":"Polygon","coordinates":[[[-93.29444676,45.0781196],[-93.32620919,45.07803329],[-93.32633731,45.10053739],[-93.29456241,45.10062377],[-93.29444676,45.0781196]]]}},{"type":"Feature","properties":{"cell_index":191},"geometry":{"type":"Polygon","coordinates":[[[-93.26155727,44.83064469],[-93.29318358,44.83056788],[-93.29329774,44.85307303],[-93.26165911,44.8531499],[-93.26155727,44.83064469]]]}},{"type":"Feature","properties":{"cell_index":192},"geometry":{"type":"Polygon","coordinates":[[[-93.26165911,44.8531499],[-93.29329774,44.85307303],[-93.29341203,44.87557809],[-93.26176108,44.87565502],[-93.26165911,44.8531499]]]}},{"type":"Feature","properties":{"cell_index":193},"geometry":{"type":"Polygon","coordinates":[[[-93.26176108,44.87565502],[-93.29341203,44.87557809],[-93.29352646,44.89808306],[-93.26186317,44.89816005],[-93.26176108,44.87565502]]]}},{"type":"Feature","properties":{"cell_index":194},"geometry":{"type":"Polygon","coordinates":[[[-93.26186317,44.89816005],[-93.29352646,44.89808306],[-93.29364103,44.92058794],[-93.26196537,44.92066499],[-93.26186317,44.89816005]]]}},{"type":"Feature","properties":{"cell_index":195},"geometry":{"type":"Polygon","coordinates":[[[-93.26196537,44.92066499],[-93.29364103,44.92058794],[-93.29375573,44.94309273],[-93.2620677,44.94316984],[-93.26196537,44.92066499]]]}},{"type":"Feature","properties":{"cell_index":196},"geometry":{"type":"Polygon","coordinates":[[[-93.2620677,44.94316984],[-93.29375573,44.94309273],[-93.29387056,44.96559743],[-93.26217015,44.9656746],[-93.2620677,44.94316984]]]}},{"type":"Feature","properties":{"cell_index":197},"geometry":{"type":"Polygon","coordinates":[[[-93.26217015,44.9656746],[-93.29387056,44.96559743],[-93.29398553,44.98810204],[-93.26227271,44.98817927],[-93.26217015,44.9656746]]]}},{"type":"Feature","properties":{"cell_index":198},"geometry":{"type":"Polygon","coordinates":[[[-93.26227271,44.98817927],[-93.29398553,44.98810204],[-93.29410063,45.01060657],[-93.2623754,45.01068386],[-93.26227271,44.98817927]]]}},{"type":"Feature","properties":{"cell_index":199},"geometry":{"type":"Polygon","coordinates":[[[-93.2623754,45.01068386],[-93.29410063,45.01060657],[-93.29421587,45.033111],[-93.26247821,45.03318835],[-93.2623754,45.01068386]]]}},{"type":"Feature","properties":{"cell_index":200},"geometry":{"type":"Polygon","coordinates":[[[-93.22993084,44.83071274],[-93.26155727,44.83064469],[-93.26165911,44.8531499],[-93.23002037,44.853218],[-93.22993084,44.83071274]]]}},{"type":"Feature","properties":{"cell_index":201},"geometry":{"type":"Polygon","coordinates":[[[-93.23002037,44.853218],[-93.26165911,44.8531499],[-93.26176108,44.87565502],[-93.23011001,44.87572318],[-93.23002037,44.853218]]]}},{"type":"Feature","properties":{"cell_index":202},"geometry":{"type":"Polygon","coordinates":[[[-93.23011001,44.87572318],[-93.26176108,44.87565502],[-93.26186317,44.89816005],[-93.23019975,44.89822826],[-93.23011001,44.87572318]]]}},{"type":"Feature","properties":{"cell_index":203},"geometry":{"type":"Polygon","coordinates":[[[-93.23019975,44.89822826],[-93.26186317,44.89816005],[-93.26196537,44.92066499],[-93.2302896,44.92073325],[-93.23019975,44.89822826]]]}},{"type":"Feature","properties":{"cell_index":204},"geometry":{"type":"Polygon","coordinates":[[[-93.2302896,44.92073325],[-93.26196537,44.92066499],[-93.2620677,44.94316984],[-93.23037955,44.94323816],[-93.2302896,44.92073325]]]}},{"type":"Feature","properties":{"cell_index":205},"geometry":{"type":"Polygon","coordinates":[[[-93.23037955,44.94323816],[-93.2620677,44.94316984],[-93.26217015,44.9656746],[-93.23046961,44.96574297],[-93.23037955,44.94323816]]]}},{"type":"Feature","properties":{"cell_index":206},"geometry":{"type":"Polygon","coordinates":[[[-93.23046961,44.96574297],[-93.26217015,44.9656746],[-93.26227271,44.98817927],[-93.23055978,44.9882477],[-93.23046961,44.96574297]]]}},{"type":"Feature","properties":{"cell_index":207},"geometry":{"type":"Polygon","coordinates":[[[-93.23055978,44.9882477],[-93.26227271,44.98817927],[-93.2623754,45.01068386],[-93.23065005,45.01075234],[-93.23055978,44.9882477]]]}},{"type":"Feature","properties":{"cell_index":208},"geometry":{"type":"Polygon","coordinates":[[[-93.23065005,45.01075234],[-93.2623754,45.01068386],[-93.26247821,45.03318835],[-93.23074043,45.03325688],[-93.23065005,45.01075234]]]}},{"type":"Feature","properties":{"cell_index":209},"geometry":{"type":"Polygon","coordinates":[[[-93.19845883,44.87578256],[-93.23011001,44.87572318],[-93.23019975,44.89822826],[-93.19853623,44.89828769],[-93.19845883,44.87578256]]]}}]}
